[{"OBJECT_NAME":"POLYITAN-1","OBJECT_ID":"2014-033AJ","EPOCH":"2026-03-09T22:27:50.258304","MEAN_MOTION":15.29568085,"ECCENTRICITY":0.00093607,"INCLINATION":98.1053,"RA_OF_ASC_NODE":86.0432,"ARG_OF_PERICENTER":127.248,"MEAN_ANOMALY":232.9614,"EPHEMERIS_TYPE":0,"CLASSIFICATION_TYPE":"U","NORAD_CAT_ID":40042,"ELEMENT_SET_NO":999,"REV_AT_EPOCH":63840,"BSTAR":0.00083772474,"MEAN_MOTION_DOT":0.00024003,"MEAN_MOTION_DDOT":0},{"OBJECT_NAME":"STARLINK-31447","OBJECT_ID":"2024-056G","EPOCH":"2026-03-09T11:45:19.207296","MEAN_MOTION":15.27571238,"ECCENTRICITY":9.479e-5,"INCLINATION":43.0009,"RA_OF_ASC_NODE":231.8462,"ARG_OF_PERICENTER":274.9567,"MEAN_ANOMALY":85.1176,"EPHEMERIS_TYPE":0,"CLASSIFICATION_TYPE":"U","NORAD_CAT_ID":59302,"ELEMENT_SET_NO":999,"REV_AT_EPOCH":11112,"BSTAR":-7.407068e-6,"MEAN_MOTION_DOT":-4.66e-6,"MEAN_MOTION_DDOT":0}]
